{"type": "FeatureCollection", "features": [ {"type": "Feature", "properties": {"norad_id": 66990, "name": "TJS-22", "group": "last-30-days", "lat": 1.2932478343897371, "lon": 64.15956893933722, "alt_km": 35798.89393772253, "timestamp": "2025-12-27T17:24:56.108070+00:00", "meta": {"OBJECT_NAME": "TJS-22", "OBJECT_ID": "2025-290A", "EPOCH": "2025-12-27T08:12:09.783360", "MEAN_MOTION": 1.00271892, "ECCENTRICITY": 0.0003374, "INCLINATION": 1.9517, "RA_OF_ASC_NODE": 285.0365, "ARG_OF_PERICENTER": 343.2703, "MEAN_ANOMALY": 17.2585, "EPHEMERIS_TYPE": 0, "CLASSIFICATION_TYPE": "U", "NORAD_CAT_ID": 66990, "ELEMENT_SET_NO": 999, "REV_AT_EPOCH": 30, "BSTAR": 0, "MEAN_MOTION_DOT": 1.7e-07, "MEAN_MOTION_DDOT": 0}, "tle": {"line1": "1 66990U 25290A   25361.34177990  .00000017  00000+0  00000+0 0  9991", "line2": "2 66990   1.9517 285.0365 0003374 343.2703  17.2585  1.00271892   304"}}, "geometry": {"type": "Point", "coordinates": [64.15956893933722, 1.2932478343897371]}}, {"type": "Feature", "properties": {"norad_id": 66991, "name": "CZ-3B R/B", "group": "last-30-days", "lat": -12.71719301289841, "lon": -88.90526137571399, "alt_km": 19834.330173737046, "timestamp": "2025-12-27T17:24:56.108083+00:00", "meta": {"OBJECT_NAME": "CZ-3B R/B", "OBJECT_ID": "2025-290B", "EPOCH": "2025-12-15T17:23:33.043200", "MEAN_MOTION": 2.38388611, "ECCENTRICITY": 0.7240884, "INCLINATION": 28.4636, "RA_OF_ASC_NODE": 300.4666, "ARG_OF_PERICENTER": 182.7002, "MEAN_ANOMALY": 168.625, "EPHEMERIS_TYPE": 0, "CLASSIFICATION_TYPE": "U", "NORAD_CAT_ID": 66991, "ELEMENT_SET_NO": 999, "REV_AT_EPOCH": 16, "BSTAR": 0.00075879, "MEAN_MOTION_DOT": 0.00057911, "MEAN_MOTION_DDOT": -2.0514e-07}, "tle": {"line1": "1 66991U 25290B   25349.72468800  .00057911 -20514-6  75879-3 0  9998", "line2": "2 66991  28.4636 300.4666 7240884 182.7002 168.6250  2.38388611   165"}}, "geometry": {"type": "Point", "coordinates": [-88.90526137571399, -12.71719301289841]}}, {"type": "Feature", "properties": {"norad_id": 66993, "name": "2025-292A", "group": "last-30-days", "lat": 64.22011156301865, "lon": -89.71439858716899, "alt_km": 548.9887107454233, "timestamp": "2025-12-27T17:24:56.108111+00:00", "meta": {"OBJECT_NAME": "2025-292A", "OBJECT_ID": "2025-292A", "EPOCH": "2025-12-27T10:31:20.035776", "MEAN_MOTION": 15.04608424, "ECCENTRICITY": 0.0014805, "INCLINATION": 97.6491, "RA_OF_ASC_NODE": 73.8452, "ARG_OF_PERICENTER": 220.0074, "MEAN_ANOMALY": 140.0062, "EPHEMERIS_TYPE": 0, "CLASSIFICATION_TYPE": "U", "NORAD_CAT_ID": 66993, "ELEMENT_SET_NO": 999, "REV_AT_EPOCH": 260, "BSTAR": 0.00036034, "MEAN_MOTION_DOT": 5.01e-05, "MEAN_MOTION_DDOT": 0}, "tle": {"line1": "1 66993U 25292A   25361.43842634  .00005010  00000+0  36034-3 0  9998", "line2": "2 66993  97.6491  73.8452 0014805 220.0074 140.0062 15.04608424  2608"}}, "geometry": {"type": "Point", "coordinates": [-89.71439858716899, 64.22011156301865]}}, {"type": "Feature", "properties": {"norad_id": 66994, "name": "2025-292B", "group": "last-30-days", "lat": 61.46375690536752, "lon": -91.55678288717635, "alt_km": 548.6164291839414, "timestamp": "2025-12-27T17:24:56.108123+00:00", "meta": {"OBJECT_NAME": "2025-292B", "OBJECT_ID": "2025-292B", "EPOCH": "2025-12-26T21:44:28.806144", "MEAN_MOTION": 15.04654531, "ECCENTRICITY": 0.0014552, "INCLINATION": 97.6501, "RA_OF_ASC_NODE": 73.3208, "ARG_OF_PERICENTER": 222.0345, "MEAN_ANOMALY": 137.9766, "EPHEMERIS_TYPE": 0, "CLASSIFICATION_TYPE": "U", "NORAD_CAT_ID": 66994, "ELEMENT_SET_NO": 999, "REV_AT_EPOCH": 252, "BSTAR": 0.00041508, "MEAN_MOTION_DOT": 5.788e-05, "MEAN_MOTION_DDOT": 0}, "tle": {"line1": "1 66994U 25292B   25360.90588896  .00005788  00000+0  41508-3 0  9991", "line2": "2 66994  97.6501  73.3208 0014552 222.0345 137.9766 15.04654531  2524"}}, "geometry": {"type": "Point", "coordinates": [-91.55678288717635, 61.46375690536752]}}, {"type": "Feature", "properties": {"norad_id": 66995, "name": "2025-292C", "group": "last-30-days", "lat": 60.22292674569559, "lon": -92.28350266722688, "alt_km": 548.4986051224223, "timestamp": "2025-12-27T17:24:56.108133+00:00", "meta": {"OBJECT_NAME": "2025-292C", "OBJECT_ID": "2025-292C", "EPOCH": "2025-12-25T05:50:07.257120", "MEAN_MOTION": 15.04668363, "ECCENTRICITY": 0.0014688, "INCLINATION": 97.6495, "RA_OF_ASC_NODE": 71.6733, "ARG_OF_PERICENTER": 227.9665, "MEAN_ANOMALY": 132.0312, "EPHEMERIS_TYPE": 0, "CLASSIFICATION_TYPE": "U", "NORAD_CAT_ID": 66995, "ELEMENT_SET_NO": 999, "REV_AT_EPOCH": 227, "BSTAR": 0.00041226, "MEAN_MOTION_DOT": 5.751e-05, "MEAN_MOTION_DDOT": 0}, "tle": {"line1": "1 66995U 25292C   25359.24313955  .00005751  00000+0  41226-3 0  9996", "line2": "2 66995  97.6495  71.6733 0014688 227.9665 132.0312 15.04668363  2273"}}, "geometry": {"type": "Point", "coordinates": [-92.28350266722688, 60.22292674569559]}}, {"type": "Feature", "properties": {"norad_id": 66996, "name": "2025-292D", "group": "last-30-days", "lat": 58.27170755805241, "lon": -93.3149545704154, "alt_km": 548.6951959282687, "timestamp": "2025-12-27T17:24:56.108145+00:00", "meta": {"OBJECT_NAME": "2025-292D", "OBJECT_ID": "2025-292D", "EPOCH": "2025-12-25T05:49:36.025248", "MEAN_MOTION": 15.04678565, "ECCENTRICITY": 0.0013797, "INCLINATION": 97.6491, "RA_OF_ASC_NODE": 71.6729, "ARG_OF_PERICENTER": 230.5158, "MEAN_ANOMALY": 129.4848, "EPHEMERIS_TYPE": 0, "CLASSIFICATION_TYPE": "U", "NORAD_CAT_ID": 66996, "ELEMENT_SET_NO": 999, "REV_AT_EPOCH": 227, "BSTAR": 0.00027339, "MEAN_MOTION_DOT": 3.792e-05, "MEAN_MOTION_DDOT": 0}, "tle": {"line1": "1 66996U 25292D   25359.24277807  .00003792  00000+0  27339-3 0  9994", "line2": "2 66996  97.6491  71.6729 0013797 230.5158 129.4848 15.04678565  2271"}}, "geometry": {"type": "Point", "coordinates": [-93.3149545704154, 58.27170755805241]}}, {"type": "Feature", "properties": {"norad_id": 66997, "name": "2025-292E", "group": "last-30-days", "lat": 53.058616087421036, "lon": -95.56435896655796, "alt_km": 548.3843031679653, "timestamp": "2025-12-27T17:24:56.108157+00:00", "meta": {"OBJECT_NAME": "2025-292E", "OBJECT_ID": "2025-292E", "EPOCH": "2025-12-27T10:28:18.848928", "MEAN_MOTION": 15.04792599, "ECCENTRICITY": 0.0014387, "INCLINATION": 97.6508, "RA_OF_ASC_NODE": 73.8512, "ARG_OF_PERICENTER": 224.1252, "MEAN_ANOMALY": 135.8827, "EPHEMERIS_TYPE": 0, "CLASSIFICATION_TYPE": "U", "NORAD_CAT_ID": 66997, "ELEMENT_SET_NO": 999, "REV_AT_EPOCH": 259, "BSTAR": 0.00037449, "MEAN_MOTION_DOT": 5.235e-05, "MEAN_MOTION_DDOT": 0}, "tle": {"line1": "1 66997U 25292E   25361.43632927  .00005235  00000+0  37449-3 0  9994", "line2": "2 66997  97.6508  73.8512 0014387 224.1252 135.8827 15.04792599  2592"}}, "geometry": {"type": "Point", "coordinates": [-95.56435896655796, 53.058616087421036]}}, {"type": "Feature", "properties": {"norad_id": 66998, "name": "2025-292F", "group": "last-30-days", "lat": 42.74591488107399, "lon": -98.71481430138405, "alt_km": 547.5373751332763, "timestamp": "2025-12-27T17:24:56.108167+00:00", "meta": {"OBJECT_NAME": "2025-292F", "OBJECT_ID": "2025-292F", "EPOCH": "2025-12-27T12:01:18.471072", "MEAN_MOTION": 15.04983953, "ECCENTRICITY": 0.001552, "INCLINATION": 97.6529, "RA_OF_ASC_NODE": 73.9235, "ARG_OF_PERICENTER": 224.7121, "MEAN_ANOMALY": 135.2854, "EPHEMERIS_TYPE": 0, "CLASSIFICATION_TYPE": "U", "NORAD_CAT_ID": 66998, "ELEMENT_SET_NO": 999, "REV_AT_EPOCH": 261, "BSTAR": 0.00050707, "MEAN_MOTION_DOT": 7.151e-05, "MEAN_MOTION_DDOT": 0}, "tle": {"line1": "1 66998U 25292F   25361.50090823  .00007151  00000+0  50707-3 0  9997", "line2": "2 66998  97.6529  73.9235 0015520 224.7121 135.2854 15.04983953  2613"}}, "geometry": {"type": "Point", "coordinates": [-98.71481430138405, 42.74591488107399]}}, {"type": "Feature", "properties": {"norad_id": 66999, "name": "2025-292G", "group": "last-30-days", "lat": 38.78009832874911, "lon": -99.64748748724985, "alt_km": 547.5897371476631, "timestamp": "2025-12-27T17:24:56.108182+00:00", "meta": {"OBJECT_NAME": "2025-292G", "OBJECT_ID": "2025-292G", "EPOCH": "2025-12-27T12:00:15.204672", "MEAN_MOTION": 15.05048286, "ECCENTRICITY": 0.0015036, "INCLINATION": 97.6539, "RA_OF_ASC_NODE": 73.9263, "ARG_OF_PERICENTER": 226.6631, "MEAN_ANOMALY": 133.3343, "EPHEMERIS_TYPE": 0, "CLASSIFICATION_TYPE": "U", "NORAD_CAT_ID": 66999, "ELEMENT_SET_NO": 999, "REV_AT_EPOCH": 261, "BSTAR": 0.00050738, "MEAN_MOTION_DOT": 7.167e-05, "MEAN_MOTION_DDOT": 0}, "tle": {"line1": "1 66999U 25292G   25361.50017598  .00007167  00000+0  50738-3 0  9997", "line2": "2 66999  97.6539  73.9263 0015036 226.6631 133.3343 15.05048286  2619"}}, "geometry": {"type": "Point", "coordinates": [-99.64748748724985, 38.78009832874911]}}, {"type": "Feature", "properties": {"norad_id": 67000, "name": "2025-292H", "group": "last-30-days", "lat": 37.84183579878953, "lon": -99.8492494859633, "alt_km": 547.4243702389431, "timestamp": "2025-12-27T17:24:56.108192+00:00", "meta": {"OBJECT_NAME": "2025-292H", "OBJECT_ID": "2025-292H", "EPOCH": "2025-12-27T12:00:00.556416", "MEAN_MOTION": 15.05085952, "ECCENTRICITY": 0.0014977, "INCLINATION": 97.6552, "RA_OF_ASC_NODE": 73.9294, "ARG_OF_PERICENTER": 226.5154, "MEAN_ANOMALY": 133.4828, "EPHEMERIS_TYPE": 0, "CLASSIFICATION_TYPE": "U", "NORAD_CAT_ID": 67000, "ELEMENT_SET_NO": 999, "REV_AT_EPOCH": 248, "BSTAR": 0.0006039, "MEAN_MOTION_DOT": 8.552e-05, "MEAN_MOTION_DDOT": 0}, "tle": {"line1": "1 67000U 25292H   25361.50000644  .00008552  00000+0  60390-3 0  9999", "line2": "2 67000  97.6552  73.9294 0014977 226.5154 133.4828 15.05085952  2489"}}, "geometry": {"type": "Point", "coordinates": [-99.8492494859633, 37.84183579878953]}}]}